{"type":"FeatureCollection","features":[{"type":"Feature","properties":{"name":"حدود البلدية","derived":true},"geometry":{"type":"Polygon","coordinates":[[[35.244364,33.245192],[35.243176,33.24405],[35.243137,33.243976],[35.243174,33.243875],[35.244129,33.243245],[35.246851,33.242284],[35.249125,33.242406],[35.250138,33.241397],[35.25178,33.241113],[35.252949,33.23954],[35.253167,33.239285],[35.253248,33.23925],[35.253366,33.239269],[35.255019,33.240159],[35.257213,33.240211],[35.259148,33.239411],[35.261803,33.237946],[35.262977,33.238239],[35.266842,33.238142],[35.269658,33.239641],[35.271216,33.241818],[35.272161,33.242918],[35.27436,33.242697],[35.274525,33.24102],[35.274576,33.240933],[35.277006,33.240498],[35.277,33.238838],[35.277047,33.238743],[35.277193,33.238706],[35.277807,33.239194],[35.279155,33.240607],[35.28061,33.241267],[35.282492,33.241511],[35.284836,33.243285],[35.28591,33.244011],[35.286588,33.244629],[35.286591,33.244763],[35.286191,33.245354],[35.284261,33.246297],[35.284084,33.248908],[35.286099,33.250136],[35.286832,33.251378],[35.287567,33.253324],[35.286455,33.254914],[35.285851,33.256025],[35.285398,33.256182],[35.283436,33.255652],[35.281114,33.256369],[35.278919,33.258258],[35.278132,33.259892],[35.279012,33.26128],[35.280457,33.263168],[35.281458,33.264102],[35.28192,33.264433],[35.281932,33.264537],[35.281688,33.265091],[35.279871,33.266143],[35.277428,33.266419],[35.27417,33.266555],[35.274044,33.266512],[35.273486,33.26601],[35.270527,33.26646],[35.268389,33.26716],[35.267569,33.267143],[35.26475,33.266107],[35.263371,33.266477],[35.262298,33.268449],[35.261136,33.269304],[35.26049,33.269851],[35.260354,33.26989],[35.259306,33.269175],[35.25937,33.267442],[35.261302,33.26609],[35.261699,33.264244],[35.259461,33.263127],[35.258623,33.26048],[35.258233,33.260439],[35.256628,33.261406],[35.258332,33.263398],[35.258335,33.263552],[35.25823,33.26361],[35.255326,33.264044],[35.252096,33.263331],[35.250983,33.263407],[35.250017,33.262522],[35.246663,33.262198],[35.246536,33.262124],[35.246543,33.261995],[35.247437,33.260747],[35.249216,33.258617],[35.247578,33.256571],[35.246862,33.255292],[35.245439,33.25321],[35.244446,33.25285],[35.24391,33.252725],[35.243829,33.252644],[35.243843,33.252539],[35.244886,33.250985],[35.246417,33.249026],[35.245484,33.247425],[35.244364,33.245192]]]}}]}